NUSAT-1 (FRESCO)        
1 41557U 16033B   22022.60605828  .00007454  00000+0  24957-3 0  9997
2 41557  97.3911 120.5180 0012269 170.3492 301.9197 15.31170612315047
BEESAT-4                
1 41619U 16040W   22022.10926366  .00005922  00000+0  22389-3 0  9997
2 41619  97.2403  76.9071 0008520 278.6310  81.3964 15.27306302298368
CAS-2T & KS-1Q          
1 41847U 16066G   22022.12948510  .00000327  00000+0  60513-4 0  9991
2 41847  98.5728  86.8385 0363638 287.4126  68.7613 14.38330313273318
NAYIF-1 (EO-88)         
1 42017U 17008BX  22022.14353796  .00007085  00000+0  24468-3 0  9992
2 42017  97.2901  90.7488 0006929  60.0386 300.1542 15.30227731274671
ZHUHAI-1 02 (CAS-4B)    
1 42759U 17034B   22022.58965910  .00002315  00000+0  15018-3 0  9991
2 42759  43.0183  55.9366 0006775  88.1340  54.9409 15.10761616254287
ZHUHAI-1 01 (CAS-4A)    
1 42761U 17034D   22022.50299961  .00002486  00000+0  15993-3 0  9993
2 42761  43.0186  55.3103 0006975  92.1354  57.1862 15.10849975254270
MAX VALIER SAT          
1 42778U 17036P   22022.59336334  .00003474  00000+0  14287-3 0  9991
2 42778  97.2276  68.7858 0013039 119.1338 241.1207 15.24728462254668
RADFXSAT (FOX-1B)       
1 43017U 17073E   22022.41300620  .00002902  00000+0  22681-3 0  9991
2 43017  97.6906 282.5555 0251527 305.7871  52.0193 14.80230040225505
FOX-1D (AO-92)          
1 43137U 18004AC  22021.19384357  .00004316  00000+0  16748-3 0  9990
2 43137  97.3857  97.8988 0008954 153.8604 206.3088 15.26603218223863
DIWATA-2B               
1 43678U 18084H   22022.58425962  .00000577  00000+0  62861-4 0  9993
2 43678  97.9483 154.3892 0011108  52.6143 307.6105 14.91888470176101
ES'HAIL 2               
1 43700U 18090A   22022.54701196  .00000156  00000+0  00000+0 0  9993
2 43700   0.0157  88.9416 0002262 250.0078   5.6205  1.00272878 11565
FOX-1CLIFF (AO-95)      
1 43770U 18099N   22021.97779320  .00000932  00000+0  88720-4 0  9991
2 43770  97.6408  92.0784 0015365  50.4627 309.7949 14.95689409171118
ITASAT 1                
1 43786U 18099AE  22021.99081457  .00001120  00000+0  10490-3 0  9995
2 43786  97.6430  92.9198 0015863  43.8750 316.3728 14.95934155171158
JY1SAT (JO-97)          
1 43803U 18099AX  22021.98091887  .00001098  00000+0  10213-3 0  9999
2 43803  97.6392  92.6472 0015739  42.9651 317.2796 14.96259335171166
UWE-4                   
1 43880U 18111E   22022.55176609  .00001901  00000+0  16865-3 0  9991
2 43880  97.6781 291.4268 0013823  90.3302 269.9504 14.97291089167862
NEXUS (FO-99)           
1 43937U 19003F   22022.54048680  .00005360  00000+0  20156-3 0  9992
2 43937  97.1507  61.7868 0020936 318.1128  41.8509 15.27346737167687
PSAT2 (NO-104)          
1 44354U 19036R   22022.31540050  .00035252  00000+0  41290-3 0  9990
2 44354  28.5262  98.3212 0289269 144.4658 217.5572 15.23271637142261
BRICSAT2 (NO-103)       
1 44355U 19036S   22022.05165521  .00120886 -30970-5  84057-3 0  9990
2 44355  28.5258   5.9546 0175125 294.3271  63.9138 15.54892550143159
JAISAT-1                
1 44419U 19038F   22022.10597763  .00004121  00000+0  22403-3 0  9990
2 44419  97.6190 351.5128 0018652 279.2759  80.6363 15.14919414140880
DUCHIFAT-3              
1 44854U 19089C   22021.97597385  .00002292  00000+0  18699-3 0  9992
2 44854  36.9649 247.9408 0006591 105.2101 254.9268 15.00007526115929
CAS-6 (TO-108)          
1 44881U 19093C   22022.50155851  .00000355  00000+0  51924-4 0  9992
2 44881  97.9071 103.7473 0013981 305.0424  54.9474 14.81547151113167
RS-44 & BREEZE-KM R/B   
1 44909U 19096E   22022.14627461  .00000027  00000+0  69171-4 0  9996
2 44909  82.5242 327.4952 0216550 302.0230  55.9994 12.79712057 96795
ORBITAL FACTORY 2 (OF-2)
1 45113U 19071C   22022.46069603  .00010455  00000+0  27814-3 0  9993
2 45113  51.6411  53.7023 0011362   9.2458 350.8733 15.38738776110854
HUSKYSAT-1 (HO-107)     
1 45119U 19071J   22021.70253780  .00008903  00000+0  24032-3 0  9990
2 45119  51.6405  56.8762 0010730   2.9578 357.1468 15.38500283110730
BY70-2                  
1 45857U 20042B   22022.47229412  .00004180  00000+0  58668-3 0  9994
2 45857  97.9691 100.8767 0010317 221.7834 138.2583 14.77936526 83887
SALSAT                  
1 46495U 20068K   22021.94049219  .00001245  00000+0  94820-4 0  9997
2 46495  97.7141 323.4174 0018827  55.8411 304.4589 15.03801923 72164
BY70-3                  
1 46839U 20079N   22022.52595486  .00011345  00000+0  32239-3 0  9995
2 46839  97.2194  97.0769 0007571 128.7610 355.2228 15.36301976 67806
RADFXSAT-2 (AO-109)     
1 47311U 21002C   22022.55611819  .00004516  00000+0  20106-3 0  9992
2 47311  60.6846 190.3634 0026960 162.3739 197.8290 15.22873205 56224
UVSQ-SAT                
1 47438U 21006AB  22021.95776928  .00002642  00000+0  14894-3 0  9997
2 47438  97.4596  84.0106 0013885  66.4746 293.7943 15.13968057 55108
DIY-1 (ARDUIQUBE)       
1 47963U 21022AH  22022.46525087  .00007653  00000+0  48407-3 0  9997
2 47963  97.5445 285.9349 0016995 277.8576  82.0724 15.09172592 44908
XW-3 (CAS-9)            
1 50466U 21131B   22022.51633901  .00000055  00000+0  32758-4 0  9993
2 50466  98.5959  99.7669 0004071 207.6699 152.4269 14.38437220  3933
